[{"OBJECT_NAME":"SKYSAT-C3","OBJECT_ID":"2016-058E","EPOCH":"2026-03-09T14:56:44.393856","MEAN_MOTION":15.48316313,"ECCENTRICITY":0.0001707,"INCLINATION":96.9178,"RA_OF_ASC_NODE":103.4969,"ARG_OF_PERICENTER":108.8338,"MEAN_ANOMALY":251.3099,"EPHEMERIS_TYPE":0,"CLASSIFICATION_TYPE":"U","NORAD_CAT_ID":41774,"ELEMENT_SET_NO":999,"REV_AT_EPOCH":53068,"BSTAR":0.00042801,"MEAN_MOTION_DOT":0.00022562,"MEAN_MOTION_DDOT":0},{"OBJECT_NAME":"STARLINK-36740","OBJECT_ID":"2026-026W","EPOCH":"2026-03-09T22:00:01.999584","MEAN_MOTION":15.491207,"ECCENTRICITY":0.00015501,"INCLINATION":97.2857,"RA_OF_ASC_NODE":123.4973,"ARG_OF_PERICENTER":83.5732,"MEAN_ANOMALY":115.3118,"EPHEMERIS_TYPE":0,"CLASSIFICATION_TYPE":"U","NORAD_CAT_ID":67741,"ELEMENT_SET_NO":999,"REV_AT_EPOCH":535,"BSTAR":0.0017457261,"MEAN_MOTION_DOT":0.00095789,"MEAN_MOTION_DDOT":0}]
